CCSDS_OMM_VERS = 2.0
CREATION_DATE  = 
ORIGINATOR     = 

OBJECT_NAME    = KUIPER-00214
OBJECT_ID      = 2026-030Q
CENTER_NAME    = EARTH
REF_FRAME      = TEME
TIME_SYSTEM    = UTC
MEAN_ELEMENT_THEORY = SGP/SGP4

EPOCH          = 2026-03-02T18:52:01.174080
MEAN_MOTION    = 15.36455754
ECCENTRICITY   = .0001192
INCLINATION    = 51.8838
RA_OF_ASC_NODE = 252.3062
ARG_OF_PERICENTER = 191.3108
MEAN_ANOMALY   = 168.7852

EPHEMERIS_TYPE = 0
CLASSIFICATION_TYPE = U
NORAD_CAT_ID   = 67778
ELEMENT_SET_NO = 999
REV_AT_EPOCH   = 403
BSTAR          = .72278E-3
MEAN_MOTION_DOT = .25808E-3
MEAN_MOTION_DDOT = 0

CCSDS_OMM_VERS = 2.0
CREATION_DATE  = 
ORIGINATOR     = 

OBJECT_NAME    = KUIPER-00215
OBJECT_ID      = 2026-030R
CENTER_NAME    = EARTH
REF_FRAME      = TEME
TIME_SYSTEM    = UTC
MEAN_ELEMENT_THEORY = SGP/SGP4

EPOCH          = 2026-03-02T17:56:42.245088
MEAN_MOTION    = 15.34123658
ECCENTRICITY   = .0009919
INCLINATION    = 51.8826
RA_OF_ASC_NODE = 252.7940
ARG_OF_PERICENTER = 40.4095
MEAN_ANOMALY   = 319.7626

EPHEMERIS_TYPE = 0
CLASSIFICATION_TYPE = U
NORAD_CAT_ID   = 67779
ELEMENT_SET_NO = 999
REV_AT_EPOCH   = 402
BSTAR          = .92529E-3
MEAN_MOTION_DOT = .30811E-3
MEAN_MOTION_DDOT = 0

CCSDS_OMM_VERS = 2.0
CREATION_DATE  = 
ORIGINATOR     = 

OBJECT_NAME    = KUIPER-00218
OBJECT_ID      = 2026-030S
CENTER_NAME    = EARTH
REF_FRAME      = TEME
TIME_SYSTEM    = UTC
MEAN_ELEMENT_THEORY = SGP/SGP4

EPOCH          = 2026-03-02T19:18:28.842336
MEAN_MOTION    = 15.34844934
ECCENTRICITY   = .0006187
INCLINATION    = 51.8825
RA_OF_ASC_NODE = 252.4241
ARG_OF_PERICENTER = 33.3408
MEAN_ANOMALY   = 326.7967

EPHEMERIS_TYPE = 0
CLASSIFICATION_TYPE = U
NORAD_CAT_ID   = 67780
ELEMENT_SET_NO = 999
REV_AT_EPOCH   = 403
BSTAR          = .10081E-2
MEAN_MOTION_DOT = .34372E-3
MEAN_MOTION_DDOT = 0

CCSDS_OMM_VERS = 2.0
CREATION_DATE  = 
ORIGINATOR     = 

OBJECT_NAME    = KUIPER-00220
OBJECT_ID      = 2026-030T
CENTER_NAME    = EARTH
REF_FRAME      = TEME
TIME_SYSTEM    = UTC
MEAN_ELEMENT_THEORY = SGP/SGP4

EPOCH          = 2026-03-02T17:52:27.384096
MEAN_MOTION    = 15.34413799
ECCENTRICITY   = .0008062
INCLINATION    = 51.8796
RA_OF_ASC_NODE = 252.7670
ARG_OF_PERICENTER = 37.3899
MEAN_ANOMALY   = 322.7646

EPHEMERIS_TYPE = 0
CLASSIFICATION_TYPE = U
NORAD_CAT_ID   = 67781
ELEMENT_SET_NO = 999
REV_AT_EPOCH   = 402
BSTAR          = .7062E-3
MEAN_MOTION_DOT = .2361E-3
MEAN_MOTION_DDOT = 0

CCSDS_OMM_VERS = 2.0
CREATION_DATE  = 
ORIGINATOR     = 

OBJECT_NAME    = KUIPER-00222
OBJECT_ID      = 2026-030U
CENTER_NAME    = EARTH
REF_FRAME      = TEME
TIME_SYSTEM    = UTC
MEAN_ELEMENT_THEORY = SGP/SGP4

EPOCH          = 2026-03-02T18:19:10.008192
MEAN_MOTION    = 15.32355550
ECCENTRICITY   = .0017798
INCLINATION    = 51.8799
RA_OF_ASC_NODE = 252.8852
ARG_OF_PERICENTER = 41.2483
MEAN_ANOMALY   = 318.9843

EPHEMERIS_TYPE = 0
CLASSIFICATION_TYPE = U
NORAD_CAT_ID   = 67782
ELEMENT_SET_NO = 999
REV_AT_EPOCH   = 402
BSTAR          = .35887E-3
MEAN_MOTION_DOT = .1107E-3
MEAN_MOTION_DDOT = 0

CCSDS_OMM_VERS = 2.0
CREATION_DATE  = 
ORIGINATOR     = 

OBJECT_NAME    = KUIPER-00223
OBJECT_ID      = 2026-030V
CENTER_NAME    = EARTH
REF_FRAME      = TEME
TIME_SYSTEM    = UTC
MEAN_ELEMENT_THEORY = SGP/SGP4

EPOCH          = 2026-03-02T18:00:56.799360
MEAN_MOTION    = 15.33912683
ECCENTRICITY   = .001216
INCLINATION    = 51.8811
RA_OF_ASC_NODE = 252.8090
ARG_OF_PERICENTER = 40.7641
MEAN_ANOMALY   = 319.4252

EPHEMERIS_TYPE = 0
CLASSIFICATION_TYPE = U
NORAD_CAT_ID   = 67783
ELEMENT_SET_NO = 999
REV_AT_EPOCH   = 402
BSTAR          = .6928E-3
MEAN_MOTION_DOT = .22811E-3
MEAN_MOTION_DDOT = 0

CCSDS_OMM_VERS = 2.0
CREATION_DATE  = 
ORIGINATOR     = 

OBJECT_NAME    = KUIPER-00225
OBJECT_ID      = 2026-030W
CENTER_NAME    = EARTH
REF_FRAME      = TEME
TIME_SYSTEM    = UTC
MEAN_ELEMENT_THEORY = SGP/SGP4

EPOCH          = 2026-03-02T19:07:21.385920
MEAN_MOTION    = 15.35564116
ECCENTRICITY   = .0003905
INCLINATION    = 51.8805
RA_OF_ASC_NODE = 252.3697
ARG_OF_PERICENTER = 20.9138
MEAN_ANOMALY   = 339.2007

EPHEMERIS_TYPE = 0
CLASSIFICATION_TYPE = U
NORAD_CAT_ID   = 67784
ELEMENT_SET_NO = 999
REV_AT_EPOCH   = 403
BSTAR          = .10344E-2
MEAN_MOTION_DOT = .36103E-3
MEAN_MOTION_DDOT = 0

CCSDS_OMM_VERS = 2.0
CREATION_DATE  = 
ORIGINATOR     = 

OBJECT_NAME    = KUIPER-00226
OBJECT_ID      = 2026-030X
CENTER_NAME    = EARTH
REF_FRAME      = TEME
TIME_SYSTEM    = UTC
MEAN_ELEMENT_THEORY = SGP/SGP4

EPOCH          = 2026-03-02T18:32:49.064640
MEAN_MOTION    = 15.31372531
ECCENTRICITY   = .0019528
INCLINATION    = 51.8811
RA_OF_ASC_NODE = 252.9450
ARG_OF_PERICENTER = 53.0866
MEAN_ANOMALY   = 307.1903

EPHEMERIS_TYPE = 0
CLASSIFICATION_TYPE = U
NORAD_CAT_ID   = 67785
ELEMENT_SET_NO = 999
REV_AT_EPOCH   = 402
BSTAR          = -.46768E-3
MEAN_MOTION_DOT = -.14816E-3
MEAN_MOTION_DDOT = 0

CCSDS_OMM_VERS = 2.0
CREATION_DATE  = 
ORIGINATOR     = 

OBJECT_NAME    = KUIPER-00259
OBJECT_ID      = 2026-030Y
CENTER_NAME    = EARTH
REF_FRAME      = TEME
TIME_SYSTEM    = UTC
MEAN_ELEMENT_THEORY = SGP/SGP4

EPOCH          = 2026-03-02T17:47:23.844480
MEAN_MOTION    = 15.34734735
ECCENTRICITY   = .0007983
INCLINATION    = 51.8796
RA_OF_ASC_NODE = 252.7442
ARG_OF_PERICENTER = 30.5588
MEAN_ANOMALY   = 329.5861

EPHEMERIS_TYPE = 0
CLASSIFICATION_TYPE = U
NORAD_CAT_ID   = 67786
ELEMENT_SET_NO = 999
REV_AT_EPOCH   = 402
BSTAR          = .71006E-3
MEAN_MOTION_DOT = .23988E-3
MEAN_MOTION_DDOT = 0

CCSDS_OMM_VERS = 2.0
CREATION_DATE  = 
ORIGINATOR     = 

OBJECT_NAME    = KUIPER-00260
OBJECT_ID      = 2026-030Z
CENTER_NAME    = EARTH
REF_FRAME      = TEME
TIME_SYSTEM    = UTC
MEAN_ELEMENT_THEORY = SGP/SGP4

EPOCH          = 2026-03-02T18:57:41.470848
MEAN_MOTION    = 15.36115190
ECCENTRICITY   = .0000816
INCLINATION    = 51.8792
RA_OF_ASC_NODE = 252.3247
ARG_OF_PERICENTER = 78.5553
MEAN_ANOMALY   = 281.5524

EPHEMERIS_TYPE = 0
CLASSIFICATION_TYPE = U
NORAD_CAT_ID   = 67787
ELEMENT_SET_NO = 999
REV_AT_EPOCH   = 394
BSTAR          = .75901E-3
MEAN_MOTION_DOT = .26827E-3
MEAN_MOTION_DDOT = 0

CCSDS_OMM_VERS = 2.0
CREATION_DATE  = 
ORIGINATOR     = 

OBJECT_NAME    = KUIPER-00262
OBJECT_ID      = 2026-030AA
CENTER_NAME    = EARTH
REF_FRAME      = TEME
TIME_SYSTEM    = UTC
MEAN_ELEMENT_THEORY = SGP/SGP4

EPOCH          = 2026-03-02T18:53:23.547840
MEAN_MOTION    = 15.36427077
ECCENTRICITY   = .000082
INCLINATION    = 51.8806
RA_OF_ASC_NODE = 252.3079
ARG_OF_PERICENTER = 151.6510
MEAN_ANOMALY   = 208.4521

EPHEMERIS_TYPE = 0
CLASSIFICATION_TYPE = U
NORAD_CAT_ID   = 67788
ELEMENT_SET_NO = 999
REV_AT_EPOCH   = 403
BSTAR          = .78526E-3
MEAN_MOTION_DOT = .28055E-3
MEAN_MOTION_DDOT = 0

CCSDS_OMM_VERS = 2.0
CREATION_DATE  = 
ORIGINATOR     = 

OBJECT_NAME    = KUIPER-00266
OBJECT_ID      = 2026-030AB
CENTER_NAME    = EARTH
REF_FRAME      = TEME
TIME_SYSTEM    = UTC
MEAN_ELEMENT_THEORY = SGP/SGP4

EPOCH          = 2026-03-02T18:38:32.590176
MEAN_MOTION    = 15.30987399
ECCENTRICITY   = .0022661
INCLINATION    = 51.8812
RA_OF_ASC_NODE = 252.9693
ARG_OF_PERICENTER = 52.2864
MEAN_ANOMALY   = 308.0170

EPHEMERIS_TYPE = 0
CLASSIFICATION_TYPE = U
NORAD_CAT_ID   = 67789
ELEMENT_SET_NO = 999
REV_AT_EPOCH   = 402
BSTAR          = .69564E-3
MEAN_MOTION_DOT = .20981E-3
MEAN_MOTION_DDOT = 0

